[
    {
        "Altitude(m)": 611965.2364395562,
        "Argument of Periapsis(deg)": 0.0,
        "Eccentricity": 0.0,
        "Inclination(deg)": 60.0,
        "Latitude(deg)": 59.14031641201295,
        "Longitude(deg)": 93.96979569170338,
        "Mean Anomaly(deg)": 81.8182,
        "RAAN(deg)": 120.0,
        "Satellite Name": "Test1 533",
        "Satellite Number": 533,
        "Semi-Major Axis(m)": 6980739.136638005,
        "Time(s)": 0
    },
    {
        "Altitude(m)": 611995.8618836971,
        "Argument of Periapsis(deg)": 0.00010418945913296404,
        "Eccentricity": 0.0,
        "Inclination(deg)": 60.0,
        "Latitude(deg)": 59.28341662655461,
        "Longitude(deg)": 95.10316288688516,
        "Mean Anomaly(deg)": 82.43830614546184,
        "RAAN(deg)": 119.99957995086024,
        "Satellite Name": "Test1 533",
        "Satellite Number": 533,
        "Semi-Major Axis(m)": 6980739.136638005,
        "Time(s)": 10
    }
]